ZHONGXING-2C            
1 41021U 15063A   26161.50296118 -.00000306  00000+0  00000+0 0  9999
2 41021   0.2554  90.1143 0007455  97.5928 355.6508  1.00274320 38917
GSAT-15                 
1 41028U 15065A   26160.36036365 -.00000241  00000+0  00000+0 0  9995
2 41028   0.0513 110.7137 0003923 328.9417  41.3237  1.00270540 38726
BADR-7 (ARABSAT-6B)     
1 41029U 15065B   26161.27372632  .00000162  00000+0  00000+0 0  9998
2 41029   0.0347 234.0738 0003460 324.8639 184.2264  1.00271133 38698
LAOSAT 1                
1 41034U 15067A   26161.49975119 -.00000325  00000+0  00000+0 0  9991
2 41034   0.0394 177.6608 0002395 217.2310 172.3915  1.00273012 38791
TELSTAR 12V             
1 41036U 15068A   26160.41019970 -.00000102  00000+0  00000+0 0  9992
2 41036   0.0235  65.7170 0002305  10.9367 313.8139  1.00271046 38547
ELEKTRO-L 2             
1 41105U 15074A   26161.05176068 -.00000102  00000+0  00000+0 0  9999
2 41105   6.6749  70.6113 0000880 278.5236 273.4303  1.00271662 38437
COSMOS 2513             
1 41121U 15075A   26161.42710079 -.00000121  00000+0  00000+0 0  9996
2 41121   0.0777  99.3038 0003425 332.1412  61.3623  1.00273333 38480
EXPRESS-AMU1            
1 41191U 15082A   26161.27580633  .00000173  00000+0  00000+0 0  9991
2 41191   0.0188   3.5258 0002669  78.6011 311.8922  1.00270530 38199
GAOFEN-4                
1 41194U 15083A   26161.50348118 -.00000317  00000+0  00000+0 0  9992
2 41194   0.3392  83.8287 0004251 113.0883 348.9109  1.00272363 38469
BELINTERSAT-1           
1 41238U 16001A   26161.13626581  .00000125  00000+0  00000+0 0  9990
2 41238   0.0478 120.9515 0001980 284.9357 313.1696  1.00269866 38163
IRNSS-1E                
1 41241U 16003A   26160.64908404 -.00000299  00000+0  00000+0 0  9991
2 41241  33.2186  59.8594 0017926 179.3195   4.1979  1.00268584 38002
EUTELSAT 9B             
1 41310U 16005A   26161.34173442  .00000079  00000+0  00000+0 0  9999
2 41310   0.0631  72.9717 0001731 333.8465 343.9040  1.00272764 38045
SES-9                   
1 41380U 16013A   26160.07805059 -.00000329  00000+0  00000+0 0  9999
2 41380   0.0108 336.9667 0001990 107.7708 309.1219  1.00273663 37357
EUTELSAT 65 WEST A      
1 41382U 16014A   26161.32700102 -.00000259  00000+0  00000+0 0  9996
2 41382   0.0510  11.8067 0002190  57.7184 241.7028  1.00271726 37452
IRNSS-1F                
1 41384U 16015A   26161.06126170  .00000175  00000+0  00000+0 0  9993
2 41384   5.3311  96.9420 0016570 186.6626  29.4952  1.00279064 37593
BEIDOU-2 IGSO-6         
1 41434U 16021A   26159.99654288 -.00000154  00000+0  00000+0 0  9999
2 41434  60.2137  38.1225 0057118 231.5364  79.8340  1.00261117 37396
IRNSS-1G                
1 41469U 16027A   26161.29431588 -.00000317  00000+0  00000+0 0  9996
2 41469   5.1812  97.6325 0007507 353.2173  43.3330  1.00269562 37117
JCSAT-2B                
1 41471U 16028A   26160.72883587 -.00000148  00000+0  00000+0 0  9999
2 41471   0.0181 343.7786 0000778 117.9993 212.7061  1.00269565 37056
THAICOM 8               
1 41552U 16031A   26161.45739475 -.00000104  00000+0  00000+0 0  9992
2 41552   0.0698  48.3134 0003618   9.6365  84.0609  1.00270144 36658
INTELSAT 31 (IS-31)     
1 41581U 16035A   26161.32110766 -.00000133  00000+0  00000+0 0  9992
2 41581   0.0167 265.7564 0000993 337.3759  36.1033  1.00269745 36614
BEIDOU-2 G7             
1 41586U 16037A   26161.50417453 -.00000336  00000+0  00000+0 0  9997
2 41586   1.7022  69.2563 0007124   3.1499 118.4785  1.00267770  6829
ABS-2A (MONGOLSAT-1)    
1 41588U 16038A   26160.85567294  .00000000  00000+0  00000+0 0  9993
2 41588   0.0180 325.8688 0001258  57.0366 258.1105  1.00267595 36635
EUTELSAT 117 WEST B     
1 41589U 16038B   26160.03340278  .00000004  00000+0  00000+0 0  9999
2 41589   0.0422 159.6913 0000345 138.3370 214.4010  1.00276750 36580
BRISAT                  
1 41591U 16039A   26160.94199983  .00000000  00000+0  00000+0 0  9994
2 41591   0.0231 320.1453 0001994 118.8641 308.9105  1.00268701 36536
ECHOSTAR 18             
1 41592U 16039B   26160.04450314 -.00000265  00000+0  00000+0 0  9998
2 41592   0.0178 340.8727 0001393 102.1330 129.0878  1.00271708 36545
MUOS-5                  
1 41622U 16041A   26161.26641970 -.00000096  00000+0  00000+0 0  9992
2 41622   2.2194 301.5061 0197058 260.8833  46.9153  1.00271130 37015
TIANTONG-1 1            
1 41725U 16048A   26161.50261450 -.00000302  00000+0  00000+0 0  9991
2 41725   3.8358  43.3531 0005958  43.8807  93.9893  1.00269871 36200
JCSAT-16                
1 41729U 16050A   26160.22775962 -.00000234  00000+0  00000+0 0  9998
2 41729   0.0177 356.2594 0000921  90.5519  36.7275  1.00270108 35990
USA 270                 
1 41744U 16052A   26159.09509409  .00000095  00000+0  00000+0 0  9995
2 41744   4.1755  77.3049 0008515 337.9683  59.8197  1.00284145 28040
USA 271                 
1 41745U 16052B   26158.79771956 -.00000344  00000+0  00000+0 0  9998
2 41745   4.1460  77.3775 0010783 157.2143  71.4983  1.00262239 27822
INTELSAT 36 (IS-36)     
1 41747U 16053A   26161.46850264 -.00000007  00000+0  00000+0 0  9995
2 41747   0.0115 359.4493 0001854 334.1187 162.4139  1.00270442 35895
INSAT-3DR               
1 41752U 16054A   26161.45739475 -.00000059  00000+0  00000+0 0  9998
2 41752   0.0879  87.3314 0010512 186.7602 223.3726  1.00270374 35759
